STARLINK-11111 [DTC]    
1 59764U 24091M   24156.92877463  .00061766  00000+0  37821-3 0  9990
2 59764  53.1578 136.0810 0001361  68.3347 291.7819 15.76754482  4542
STARLINK-11106 [DTC]    
1 59765U 24091N   24156.93079118  .00037319  00000+0  23101-3 0  9996
2 59765  53.1589 136.0947 0001536 122.5811 237.5358 15.76728665  4549
STARLINK-31739          
1 59766U 24091P   24156.91667824 -.01712853  00000+0 -21460-1 0  9992
2 59766  53.1594 136.5730 0000825  95.8245 342.0901 15.62044051  4523
STARLINK-31828          
1 59767U 24091Q   24156.91667824 -.01713547  00000+0 -21434-1 0  9995
2 59767  53.1593 136.5865 0000877  95.1401 336.5148 15.62086019  4325
STARLINK-31826          
1 59768U 24091R   24156.91667824 -.01711551  00000+0 -21383-1 0  9992
2 59768  53.1593 136.5949 0001003  99.6129 327.8696 15.62112526  4589
STARLINK-31830          
1 59769U 24091S   24156.91667824 -.01711579  00000+0 -21430-1 0  9996
2 59769  53.1593 136.5774 0000968  96.6512 339.1769 15.62057330  4328
STARLINK-31829          
1 59770U 24091T   24156.91667824 -.01711970  00000+0 -21401-1 0  9991
2 59770  53.1592 136.5905 0000904 101.1647 328.4053 15.62098888  4326
STARLINK-31786          
1 59771U 24091U   24156.91667824 -.01713118  00000+0 -21441-1 0  9992
2 59771  53.1593 136.5820 0000716 101.7452 331.9977 15.62071952  4524
STARLINK-31835          
1 59772U 24091V   24156.91667824 -.01712990  00000+0 -21474-1 0  9996
2 59772  53.1594 136.5689 0000751  97.5033 342.4980 15.62030328  4326
COSMOS 2576             
1 59773U 24092A   24156.89921941  .00037009  00000+0  85645-3 0  9998
2 59773  97.2404 268.9531 0012645 179.1842 180.9428 15.42294051  2921
2024-092B               
1 59774U 24092B   24156.91246707  .00010596  00000+0  67300-3 0  9992
2 59774  97.5910 268.8814 0012114 233.7130 126.2980 15.08982136  2834
2024-092C               
1 59775U 24092C   24156.91040959  .00010520  00000+0  66518-3 0  9991
2 59775  97.6036 268.9275 0012071 237.1724 122.8342 15.09149765  2845
2024-092D               
1 59776U 24092D   24156.92594080  .00012933  00000+0  84402-3 0  9994
2 59776  97.5989 268.8909 0012575 211.6965 148.3507 15.07927786  2849
2024-092E               
1 59777U 24092E   24156.92584497  .00012848  00000+0  83843-3 0  9999
2 59777  97.5989 268.8911 0012872 212.2850 147.7591 15.07928932  2843
2024-092F               
1 59778U 24092F   24156.92512541  .00012483  00000+0  81339-3 0  9994
2 59778  97.5986 268.8912 0013077 213.4045 146.6360 15.07986784  2840
2024-092G               
1 59779U 24092G   24156.94769415  .00000358  00000+0  15243-3 0  9990
2 59779  98.6078 268.9541 0011356 229.4723 130.5472 14.31077898  2706
2024-092H               
1 59780U 24092H   24156.94762455  .00000355  00000+0  15144-3 0  9996
2 59780  98.6077 268.9540 0011707 230.3565 129.6585 14.31083006  2703
2024-092J               
1 59781U 24092J   24156.94758388  .00001240  00000+0  48676-3 0  9997
2 59781  98.6078 268.9541 0011599 230.0490 129.9674 14.31091771  2709
STARLINK-31363          
1 59782U 24093A   24156.91667824 -.01066319  00000+0 -73332-2 0  9997
2 59782  42.9995 270.3058 0001474 279.9560 275.5602 15.76202271  4048
STARLINK-31868          
1 59783U 24093B   24156.91667824  .00193288  00000+0  13088-2 0  9993
2 59783  43.0003 271.2644 0001675 265.1614 269.8991 15.73656543  4041
STARLINK-31848          
1 59784U 24093C   24156.91667824  .00258411  00000+0  17393-2 0  9997
2 59784  43.0004 271.2594 0001775 279.8184 257.3049 15.73599914  4046
STARLINK-31890          
1 59785U 24093D   24156.91667824  .00061031  00000+0  42001-3 0  9993
2 59785  43.0004 271.2547 0002504 226.3168 312.6685 15.73766922  4041
STARLINK-31862          
1 59786U 24093E   24156.91667824 -.00032114  00000+0 -21793-3 0  9991
2 59786  43.0004 271.2447 0002765 234.1358 308.8129 15.73827415  3895
STARLINK-31870          
1 59787U 24093F   24156.91667824  .00022233  00000+0  15551-3 0  9996
2 59787  43.0004 271.2497 0002730 216.1829 324.7718 15.73804410  3998
STARLINK-31888          
1 59788U 24093G   24156.91667824 -.00009880  00000+0 -64664-4 0  9992
2 59788  43.0004 271.2344 0001553 311.9614 234.9813 15.73824090  3992
STARLINK-31863          
1 59789U 24093H   24156.91667824  .00171033  00000+0  11601-2 0  9992
2 59789  43.0003 271.2392 0001752 291.0595 253.9813 15.73685830  4047
STARLINK-31873          
1 59790U 24093J   24156.91667824 -.00130493  00000+0 -90341-3 0  9990
2 59790  43.0003 271.2292 0001585 274.3398 274.6605 15.73896904  4042
STARLINK-31865          
1 59791U 24093K   24156.91667824  .00078660  00000+0  54048-3 0  9990
2 59791  43.0004 271.2241 0001912 292.5698 258.5080 15.73716581  4047
STARLINK-31893          
1 59792U 24093L   24156.91667824 -.00122362  00000+0 -84781-3 0  9999
2 59792  43.0004 271.2194 0002536 227.8179 325.2476 15.73846150  4051
STARLINK-31901          
1 59793U 24093M   24156.91667824  .00140134  00000+0  95284-3 0  9995
2 59793  43.0005 271.2136 0003596 238.3100 316.7044 15.73724148  4044
STARLINK-31823          
1 59794U 24093N   24156.91667824 -.00000785  00000+0 -21657-5 0  9990
2 59794  43.0003 271.2087 0002429 229.7491 327.2286 15.73811342  4047
STARLINK-31916          
1 59795U 24093P   24156.91667824  .00054765  00000+0  37780-3 0  9998
2 59795  43.0003 271.2036 0003190 244.2852 314.7715 15.73746408  4049
STARLINK-31907          
1 59797U 24093R   24156.91667824  .00134235  00000+0  91426-3 0  9998
2 59797  43.0004 271.1978 0003283 234.9794 326.0755 15.73706119  3998
STARLINK-31687          
1 59798U 24093S   24156.91667824  .00105247  00000+0  71951-3 0  9991
2 59798  43.0003 271.1567 0001898 310.4487 266.6324 15.73725544  4042
STARLINK-31810          
1 59799U 24093T   24156.91667824 -.00085972  00000+0 -59361-3 0  9997
2 59799  43.0002 271.1722 0002676 274.4717 296.6293 15.73788810  4048
STARLINK-31812          
1 59800U 24093U   24156.91667824 -.00165642  00000+0 -11536-2 0  9994
2 59800  43.0001 271.1878 0001712 281.3097 283.7681 15.73872300  4103
STARLINK-31815          
1 59801U 24093V   24156.91667824  .00085186  00000+0  58427-3 0  9998
2 59801  43.0003 271.1829 0001584 287.5960 279.4706 15.73730017  4047
STARLINK-31814          
1 59802U 24093W   24156.91667824  .00005215  00000+0  39056-4 0  9992
2 59802  43.0003 271.1779 0001632 260.0709 308.9791 15.73779297  4048
STARLINK-31794          
1 59803U 24093X   24156.91667824 -.00152089  00000+0 -10555-2 0  9998
2 59803  43.0003 271.1624 0001615 290.2398 284.8180 15.73910937  4107
STARLINK-31824          
1 59804U 24093Y   24156.91667824 -.00035765  00000+0 -24347-3 0  9995
2 59804  43.0003 271.1679 0002237 256.3725 316.7538 15.73802350  3993
2024-094A               
1 59805U 24094A   24156.93726270  .00018442  00000+0  78052-3 0  9993
2 59805  97.4729 227.7747 0008462 220.0111 140.0503 15.23207463  2402
2024-094B               
1 59806U 24094B   24156.92725119  .00019075  00000+0  77460-3 0  9999
2 59806  97.4723 227.7871 0011286 227.2350 132.7939 15.24570438  2392
2024-094C               
1 59807U 24094C   24156.92962892  .00019056  00000+0  77914-3 0  9994
2 59807  97.4738 227.7869 0011509 221.6984 138.3377 15.24338080  2398
2024-094D               
1 59808U 24094D   24156.93930862  .00017542  00000+0  76740-3 0  9992
2 59808  97.4720 227.7708 0007135 262.7924  97.2501 15.22101666  2390
2024-092K               
1 59809U 24092K   24156.92581881  .00013014  00000+0  84902-3 0  9992
2 59809  97.5983 268.8897 0013119 212.4929 147.5493 15.07931255  2346
2024-095A               
1 59810U 24095A   24156.91637228  .00009604  00000+0  56842-3 0  9995
2 59810  97.6018 232.2068 0010410 214.2319 145.8241 15.11598506  2230
2024-095B               
1 59811U 24095B   24156.91640430  .00003968  00000+0  23777-3 0  9993
2 59811  97.6024 232.2114 0010031 217.8797 142.1728 15.11527480  2231
2024-095C               
1 59812U 24095C   24156.91341115  .00014949  00000+0  87343-3 0  9992
2 59812  97.6008 232.2056 0009588 220.3966 139.6553 15.11959895  2237
2024-095D               
1 59813U 24095D   24156.91115807  .00015781  00000+0  91553-3 0  9993
2 59813  97.6010 232.2099 0008708 219.2594 140.8006 15.12210178  2237
STARLINK-31947          
1 59835U 24097A   24156.91667824 -.00753908  00000+0 -51600-2 0  9990
2 59835  43.0039 338.2980 0001600 281.4548  12.9001 15.75895273  3258
STARLINK-31929          
1 59836U 24097B   24156.91667824 -.00759927  00000+0 -52146-2 0  9994
2 59836  43.0038 338.2935 0001646 280.8694  15.2077 15.75853071  3207
STARLINK-31927          
1 59837U 24097C   24156.91667824 -.00767323  00000+0 -52817-2 0  9999
2 59837  43.0036 338.2890 0001710 280.8990  16.9337 15.75802552  3202
STARLINK-31855          
1 59838U 24097D   24156.91667824 -.00780725  00000+0 -53941-2 0  9990
2 59838  43.0040 338.2852 0001563 281.9422  17.6365 15.75755625  3201
STARLINK-31887          
1 59839U 24097E   24156.91667824 -.00782952  00000+0 -54231-2 0  9998
2 59839  43.0036 338.2803 0001655 283.6550  17.6500 15.75704138  3200
STARLINK-31925          
1 59840U 24097F   24156.91667824 -.00792455  00000+0 -55108-2 0  9993
2 59840  43.0036 338.2757 0001692 284.2677  18.8231 15.75639753  3202
STARLINK-31852          
1 59841U 24097G   24156.91667824 -.00803930  00000+0 -56107-2 0  9995
2 59841  43.0036 338.2715 0001517 284.3329  20.4733 15.75591387  3259
STARLINK-31906          
1 59842U 24097H   24156.91667824 -.00805804  00000+0 -56361-2 0  9990
2 59842  43.0035 338.2670 0001564 281.1034  25.3756 15.75546624  3252
STARLINK-31857          
1 59843U 24097J   24156.91667824 -.00819160  00000+0 -57549-2 0  9990
2 59843  43.0033 338.2625 0001504 285.4061  22.8255 15.75483605  3257
